<?xml version="1.0" encoding="UTF-8"?>
<gpx version="1.1" creator="zpe-geo" xmlns="http://www.topografix.com/GPX/1/1">
  <trk>
    <name>sample-route</name>
    <trkseg>
      <trkpt lat="43.7384" lon="7.4246">
        <time>2026-04-01T08:00:00Z</time>
      </trkpt>
      <trkpt lat="43.7386" lon="7.4251">
        <time>2026-04-01T08:00:10Z</time>
      </trkpt>
      <trkpt lat="43.7389" lon="7.4258">
        <time>2026-04-01T08:00:20Z</time>
      </trkpt>
      <trkpt lat="43.7392" lon="7.4264">
        <time>2026-04-01T08:00:30Z</time>
      </trkpt>
    </trkseg>
  </trk>
</gpx>
